{
  "type": "FeatureCollection",
  "features": [
    {
      "type": "Feature",
      "properties": {
        "norad_id": 41581,
        "name": "INTELSAT 31 (IS-31)",
        "group": "intelsat",
        "lat": 0.024613659456303744,
        "lon": 63.90484829049327,
        "alt_km": 35794.55389113771,
        "timestamp": "2025-12-04T05:42:43.045718+00:00",
        "meta_object_name": "INTELSAT 31 (IS-31)",
        "meta_object_id": "2016-035A",
        "meta_epoch": "2025-12-03T13:18:15.813216",
        "meta_mean_motion": 1.0027005,
        "meta_eccentricity": 0.00020986,
        "meta_inclination": 0.0165,
        "meta_ra_of_asc_node": 271.6332,
        "meta_arg_of_pericenter": 305.8436,
        "meta_mean_anomaly": 319.6781,
        "meta_ephemeris_type": 0,
        "meta_classification_type": "U",
        "meta_norad_cat_id": 41581,
        "meta_element_set_no": 999,
        "meta_rev_at_epoch": 3472,
        "meta_bstar": 0,
        "meta_mean_motion_dot": -1.33e-06,
        "meta_mean_motion_ddot": 0,
        "tle_line1": "1 41581U 16035A   25337.55434969 -.00000133  00000+0  00000+0 0  9995",
        "tle_line2": "2 41581   0.0165 271.6332 0002098 305.8436 319.6781  1.00270050 34721"
      },
      "geometry": {
        "type": "Point",
        "coordinates": [
          63.90484829049327,
          0.024613659456303744
        ]
      }
    },
    {
      "type": "Feature",
      "properties": {
        "norad_id": 41747,
        "name": "INTELSAT 36 (IS-36)",
        "group": "intelsat",
        "lat": -0.02955091143105857,
        "lon": -132.545522453118,
        "alt_km": 35786.85343213164,
        "timestamp": "2025-12-04T05:42:43.045729+00:00",
        "meta_object_name": "INTELSAT 36 (IS-36)",
        "meta_object_id": "2016-053A",
        "meta_epoch": "2025-12-03T20:09:58.164192",
        "meta_mean_motion": 1.00268515,
        "meta_eccentricity": 0.00015172,
        "meta_inclination": 0.0123,
        "meta_ra_of_asc_node": 0.9905,
        "meta_arg_of_pericenter": 315.4282,
        "meta_mean_anomaly": 127.5011,
        "meta_ephemeris_type": 0,
        "meta_classification_type": "U",
        "meta_norad_cat_id": 41747,
        "meta_element_set_no": 999,
        "meta_rev_at_epoch": 3399,
        "meta_bstar": 0,
        "meta_mean_motion_dot": -7e-08,
        "meta_mean_motion_ddot": 0,
        "tle_line1": "1 41747U 16053A   25337.84025653 -.00000007  00000+0  00000+0 0  9997",
        "tle_line2": "2 41747   0.0123   0.9905 0001517 315.4282 127.5011  1.00268515 33992"
      },
      "geometry": {
        "type": "Point",
        "coordinates": [
          -132.545522453118,
          -0.02955091143105857
        ]
      }
    },
    {
      "type": "Feature",
      "properties": {
        "norad_id": 41945,
        "name": "INTELSAT 32E (IS-32E)",
        "group": "intelsat",
        "lat": 0.022414469008353966,
        "lon": 115.79665519815532,
        "alt_km": 35787.499724164634,
        "timestamp": "2025-12-04T05:42:43.045741+00:00",
        "meta_object_name": "INTELSAT 32E (IS-32E)",
        "meta_object_id": "2017-007B",
        "meta_epoch": "2025-12-03T16:58:20.260416",
        "meta_mean_motion": 1.00269353,
        "meta_eccentricity": 2.437e-05,
        "meta_inclination": 0.0313,
        "meta_ra_of_asc_node": 71.605,
        "meta_arg_of_pericenter": 272.0907,
        "meta_mean_anomaly": 300.5079,
        "meta_ephemeris_type": 0,
        "meta_classification_type": "U",
        "meta_norad_cat_id": 41945,
        "meta_element_set_no": 999,
        "meta_rev_at_epoch": 3226,
        "meta_bstar": 0,
        "meta_mean_motion_dot": -2.51e-06,
        "meta_mean_motion_ddot": 0,
        "tle_line1": "1 41945U 17007B   25337.70717894 -.00000251  00000+0  00000+0 0  9998",
        "tle_line2": "2 41945   0.0313  71.6050 0000243 272.0907 300.5079  1.00269353 32263"
      },
      "geometry": {
        "type": "Point",
        "coordinates": [
          115.79665519815532,
          0.022414469008353966
        ]
      }
    },
    {
      "type": "Feature",
      "properties": {
        "norad_id": 42818,
        "name": "INTELSAT 35E (IS-35E)",
        "group": "intelsat",
        "lat": 0.011024153327280073,
        "lon": 124.47180539823982,
        "alt_km": 35793.44161445599,
        "timestamp": "2025-12-04T05:42:43.045753+00:00",
        "meta_object_name": "INTELSAT 35E (IS-35E)",
        "meta_object_id": "2017-041A",
        "meta_epoch": "2025-12-03T17:00:57.508416",
        "meta_mean_motion": 1.00270769,
        "meta_eccentricity": 0.00024271,
        "meta_inclination": 0.0092,
        "meta_ra_of_asc_node": 324.1753,
        "meta_arg_of_pericenter": 293.4784,
        "meta_mean_anomaly": 35.9019,
        "meta_ephemeris_type": 0,
        "meta_classification_type": "U",
        "meta_norad_cat_id": 42818,
        "meta_element_set_no": 999,
        "meta_rev_at_epoch": 3085,
        "meta_bstar": 0,
        "meta_mean_motion_dot": -2.2e-06,
        "meta_mean_motion_ddot": 0,
        "tle_line1": "1 42818U 17041A   25337.70899894 -.00000220  00000+0  00000+0 0  9993",
        "tle_line2": "2 42818   0.0092 324.1753 0002427 293.4784  35.9019  1.00270769 30858"
      },
      "geometry": {
        "type": "Point",
        "coordinates": [
          124.47180539823982,
          0.011024153327280073
        ]
      }
    },
    {
      "type": "Feature",
      "properties": {
        "norad_id": 42950,
        "name": "INTELSAT 37E (IS-37E)",
        "group": "intelsat",
        "lat": -0.0012829416147516213,
        "lon": 140.93946033156743,
        "alt_km": 35790.53169764278,
        "timestamp": "2025-12-04T05:42:43.045765+00:00",
        "meta_object_name": "INTELSAT 37E (IS-37E)",
        "meta_object_id": "2017-059A",
        "meta_epoch": "2025-12-03T19:04:38.697312",
        "meta_mean_motion": 1.00270782,
        "meta_eccentricity": 0.00034558,
        "meta_inclination": 0.0167,
        "meta_ra_of_asc_node": 318.1373,
        "meta_arg_of_pericenter": 289.2489,
        "meta_mean_anomaly": 93.6607,
        "meta_ephemeris_type": 0,
        "meta_classification_type": "U",
        "meta_norad_cat_id": 42950,
        "meta_element_set_no": 999,
        "meta_rev_at_epoch": 3010,
        "meta_bstar": 0,
        "meta_mean_motion_dot": -1.23e-06,
        "meta_mean_motion_ddot": 0,
        "tle_line1": "1 42950U 17059A   25337.79489233 -.00000123  00000+0  00000+0 0  9992",
        "tle_line2": "2 42950   0.0167 318.1373 0003455 289.2489  93.6607  1.00270782 30103"
      },
      "geometry": {
        "type": "Point",
        "coordinates": [
          140.93946033156743,
          -0.0012829416147516213
        ]
      }
    },
    {
      "type": "Feature",
      "properties": {
        "norad_id": 43632,
        "name": "AZERSPACE 2 (IS-38)",
        "group": "intelsat",
        "lat": -0.030080268270726268,
        "lon": -155.93152433792227,
        "alt_km": 35781.82169334647,
        "timestamp": "2025-12-04T05:42:43.045776+00:00",
        "meta_object_name": "AZERSPACE 2 (IS-38)",
        "meta_object_id": "2018-074A",
        "meta_epoch": "2025-12-03T17:23:40.331904",
        "meta_mean_motion": 1.0027174,
        "meta_eccentricity": 0.00017416,
        "meta_inclination": 0.0176,
        "meta_ra_of_asc_node": 347.6047,
        "meta_arg_of_pericenter": 271.7152,
        "meta_mean_anomaly": 119.5202,
        "meta_ephemeris_type": 0,
        "meta_classification_type": "U",
        "meta_norad_cat_id": 43632,
        "meta_element_set_no": 999,
        "meta_rev_at_epoch": 2648,
        "meta_bstar": 0,
        "meta_mean_motion_dot": 1.54e-06,
        "meta_mean_motion_ddot": 0,
        "tle_line1": "1 43632U 18074A   25337.72477236  .00000154  00000+0  00000+0 0  9994",
        "tle_line2": "2 43632   0.0176 347.6047 0001741 271.7152 119.5202  1.00271740 26485"
      },
      "geometry": {
        "type": "Point",
        "coordinates": [
          -155.93152433792227,
          -0.030080268270726268
        ]
      }
    },
    {
      "type": "Feature",
      "properties": {
        "norad_id": 43633,
        "name": "HORIZONS-3E",
        "group": "intelsat",
        "lat": 0.012992664184031485,
        "lon": -32.008262818509806,
        "alt_km": 35783.363089165316,
        "timestamp": "2025-12-04T05:42:43.045788+00:00",
        "meta_object_name": "HORIZONS-3E",
        "meta_object_id": "2018-074B",
        "meta_epoch": "2025-12-02T09:32:38.562720",
        "meta_mean_motion": 1.00268601,
        "meta_eccentricity": 0.00010808,
        "meta_inclination": 0.0303,
        "meta_ra_of_asc_node": 208.778,
        "meta_arg_of_pericenter": 80.6678,
        "meta_mean_anomaly": 94.2479,
        "meta_ephemeris_type": 0,
        "meta_classification_type": "U",
        "meta_norad_cat_id": 43633,
        "meta_element_set_no": 999,
        "meta_rev_at_epoch": 2636,
        "meta_bstar": 0,
        "meta_mean_motion_dot": -1e-07,
        "meta_mean_motion_ddot": 0,
        "tle_line1": "1 43633U 18074B   25336.39766855 -.00000010  00000+0  00000+0 0  9997",
        "tle_line2": "2 43633   0.0303 208.7780 0001080  80.6678  94.2479  1.00268601 26369"
      },
      "geometry": {
        "type": "Point",
        "coordinates": [
          -32.008262818509806,
          0.012992664184031485
        ]
      }
    }
  ]
}